{
  "type": "FeatureCollection",
  "features": [
    {
      "type": "Feature",
      "properties": {
        "norad_id": 66630,
        "name": "STARLINK-35949",
        "group": "last-30-days",
        "lat": 2.7682485337578115,
        "lon": 150.80940262863004,
        "alt_km": 426.3604997556977,
        "timestamp": "2025-12-20T18:51:30.445385+00:00",
        "meta_object_name": "STARLINK-35949",
        "meta_object_id": "2025-271P",
        "meta_epoch": "2025-12-19T21:07:53.060736",
        "meta_mean_motion": 15.46903837,
        "meta_eccentricity": 0.0003221,
        "meta_inclination": 53.1593,
        "meta_ra_of_asc_node": 153.0444,
        "meta_arg_of_pericenter": 47.5604,
        "meta_mean_anomaly": 312.5676,
        "meta_ephemeris_type": 0,
        "meta_classification_type": "U",
        "meta_norad_cat_id": 66630,
        "meta_element_set_no": 999,
        "meta_rev_at_epoch": 531,
        "meta_bstar": -0.005658,
        "meta_mean_motion_dot": -0.002797,
        "meta_mean_motion_ddot": 0,
        "tle_line1": "1 66630U 25271P   25353.88047524 -.00279700  00000+0 -56580-2 0  9996",
        "tle_line2": "2 66630  53.1593 153.0444 0003221  47.5604 312.5676 15.46903837  5319"
      },
      "geometry": {
        "type": "Point",
        "coordinates": [
          150.80940262863004,
          2.7682485337578115
        ]
      }
    },
    {
      "type": "Feature",
      "properties": {
        "norad_id": 66631,
        "name": "STARLINK-35965",
        "group": "last-30-days",
        "lat": 1.811383002137525,
        "lon": 150.09493829935673,
        "alt_km": 429.96881658282473,
        "timestamp": "2025-12-20T18:51:30.445395+00:00",
        "meta_object_name": "STARLINK-35965",
        "meta_object_id": "2025-271Q",
        "meta_epoch": "2025-12-20T14:00:03.000384",
        "meta_mean_motion": 15.45556485,
        "meta_eccentricity": 0.00013127,
        "meta_inclination": 53.1596,
        "meta_ra_of_asc_node": 149.6989,
        "meta_arg_of_pericenter": 62.2809,
        "meta_mean_anomaly": 253.2982,
        "meta_ephemeris_type": 0,
        "meta_classification_type": "U",
        "meta_norad_cat_id": 66631,
        "meta_element_set_no": 999,
        "meta_rev_at_epoch": 550,
        "meta_bstar": 2.6034622e-05,
        "meta_mean_motion_dot": 8.43e-06,
        "meta_mean_motion_ddot": 0,
        "tle_line1": "1 66631U 25271Q   25354.58336806  .00000843  00000+0  26035-4 0  9991",
        "tle_line2": "2 66631  53.1596 149.6989 0001312  62.2809 253.2982 15.45556485  5502"
      },
      "geometry": {
        "type": "Point",
        "coordinates": [
          150.09493829935673,
          1.811383002137525
        ]
      }
    },
    {
      "type": "Feature",
      "properties": {
        "norad_id": 66632,
        "name": "STARLINK-35973",
        "group": "last-30-days",
        "lat": 6.617386123087117,
        "lon": -35.87614916177666,
        "alt_km": 447.0185433394472,
        "timestamp": "2025-12-20T18:51:30.445407+00:00",
        "meta_object_name": "STARLINK-35973",
        "meta_object_id": "2025-271R",
        "meta_epoch": "2025-12-19T18:44:52.278432",
        "meta_mean_motion": 15.39637359,
        "meta_eccentricity": 9.834e-05,
        "meta_inclination": 53.1599,
        "meta_ra_of_asc_node": 153.8489,
        "meta_arg_of_pericenter": 75.4861,
        "meta_mean_anomaly": 284.6253,
        "meta_ephemeris_type": 0,
        "meta_classification_type": "U",
        "meta_norad_cat_id": 66632,
        "meta_element_set_no": 999,
        "meta_rev_at_epoch": 525,
        "meta_bstar": 0.00082132207,
        "meta_mean_motion_dot": 0.00032612,
        "meta_mean_motion_ddot": 0,
        "tle_line1": "1 66632U 25271R   25353.78116063  .00032612  00000+0  82132-3 0  9992",
        "tle_line2": "2 66632  53.1599 153.8489 0000983  75.4861 284.6253 15.39637359  5259"
      },
      "geometry": {
        "type": "Point",
        "coordinates": [
          -35.87614916177666,
          6.617386123087117
        ]
      }
    },
    {
      "type": "Feature",
      "properties": {
        "norad_id": 66633,
        "name": "STARLINK-35948",
        "group": "last-30-days",
        "lat": 5.187020356686744,
        "lon": -34.793793471855516,
        "alt_km": 447.21469082926524,
        "timestamp": "2025-12-20T18:51:30.445418+00:00",
        "meta_object_name": "STARLINK-35948",
        "meta_object_id": "2025-271S",
        "meta_epoch": "2025-12-19T17:10:55.246080",
        "meta_mean_motion": 15.39629537,
        "meta_eccentricity": 0.00010441,
        "meta_inclination": 53.1596,
        "meta_ra_of_asc_node": 154.1516,
        "meta_arg_of_pericenter": 81.5844,
        "meta_mean_anomaly": 278.5279,
        "meta_ephemeris_type": 0,
        "meta_classification_type": "U",
        "meta_norad_cat_id": 66633,
        "meta_element_set_no": 999,
        "meta_rev_at_epoch": 528,
        "meta_bstar": 0.0006790438,
        "meta_mean_motion_dot": 0.00026866,
        "meta_mean_motion_ddot": 0,
        "tle_line1": "1 66633U 25271S   25353.71591720  .00026866  00000+0  67904-3 0  9997",
        "tle_line2": "2 66633  53.1596 154.1516 0001044  81.5844 278.5279 15.39629537  5282"
      },
      "geometry": {
        "type": "Point",
        "coordinates": [
          -34.793793471855516,
          5.187020356686744
        ]
      }
    },
    {
      "type": "Feature",
      "properties": {
        "norad_id": 66634,
        "name": "STARLINK-35967",
        "group": "last-30-days",
        "lat": -15.196354942779616,
        "lon": -19.191608159264263,
        "alt_km": 450.3049598574671,
        "timestamp": "2025-12-20T18:51:30.445427+00:00",
        "meta_object_name": "STARLINK-35967",
        "meta_object_id": "2025-271T",
        "meta_epoch": "2025-12-20T00:00:02.000160",
        "meta_mean_motion": 15.39616609,
        "meta_eccentricity": 9.881e-05,
        "meta_inclination": 53.1601,
        "meta_ra_of_asc_node": 152.7619,
        "meta_arg_of_pericenter": 59.4964,
        "meta_mean_anomaly": 101.9399,
        "meta_ephemeris_type": 0,
        "meta_classification_type": "U",
        "meta_norad_cat_id": 66634,
        "meta_element_set_no": 999,
        "meta_rev_at_epoch": 534,
        "meta_bstar": 0.00039440356,
        "meta_mean_motion_dot": 0.00015406,
        "meta_mean_motion_ddot": 0,
        "tle_line1": "1 66634U 25271T   25354.00002315  .00015406  00000+0  39440-3 0  9990",
        "tle_line2": "2 66634  53.1601 152.7619 0000988  59.4964 101.9399 15.39616609  5346"
      },
      "geometry": {
        "type": "Point",
        "coordinates": [
          -19.191608159264263,
          -15.196354942779616
        ]
      }
    },
    {
      "type": "Feature",
      "properties": {
        "norad_id": 66635,
        "name": "STARLINK-35955",
        "group": "last-30-days",
        "lat": -48.97307608653978,
        "lon": 28.45872038453096,
        "alt_km": 452.7042406920127,
        "timestamp": "2025-12-20T18:51:30.445437+00:00",
        "meta_object_name": "STARLINK-35955",
        "meta_object_id": "2025-271U",
        "meta_epoch": "2025-12-20T14:00:03.000384",
        "meta_mean_motion": 15.39629055,
        "meta_eccentricity": 0.00012215,
        "meta_inclination": 53.1598,
        "meta_ra_of_asc_node": 149.9117,
        "meta_arg_of_pericenter": 91.4038,
        "meta_mean_anomaly": 116.6227,
        "meta_ephemeris_type": 0,
        "meta_classification_type": "U",
        "meta_norad_cat_id": 66635,
        "meta_element_set_no": 999,
        "meta_rev_at_epoch": 550,
        "meta_bstar": -0.00020804966,
        "meta_mean_motion_dot": -8.714e-05,
        "meta_mean_motion_ddot": 0,
        "tle_line1": "1 66635U 25271U   25354.58336806 -.00008714  00000+0 -20805-3 0  9990",
        "tle_line2": "2 66635  53.1598 149.9117 0001221  91.4038 116.6227 15.39629055  5502"
      },
      "geometry": {
        "type": "Point",
        "coordinates": [
          28.45872038453096,
          -48.97307608653978
        ]
      }
    },
    {
      "type": "Feature",
      "properties": {
        "norad_id": 66636,
        "name": "STARLINK-35968",
        "group": "last-30-days",
        "lat": -34.33381929231225,
        "lon": -0.19028540275477146,
        "alt_km": 451.6716659712911,
        "timestamp": "2025-12-20T18:51:30.445449+00:00",
        "meta_object_name": "STARLINK-35968",
        "meta_object_id": "2025-271V",
        "meta_epoch": "2025-12-20T14:00:03.000384",
        "meta_mean_motion": 15.39627174,
        "meta_eccentricity": 6.518e-05,
        "meta_inclination": 53.1602,
        "meta_ra_of_asc_node": 149.9621,
        "meta_arg_of_pericenter": 81.1516,
        "meta_mean_anomaly": 101.1201,
        "meta_ephemeris_type": 0,
        "meta_classification_type": "U",
        "meta_norad_cat_id": 66636,
        "meta_element_set_no": 999,
        "meta_rev_at_epoch": 550,
        "meta_bstar": -0.00017176165,
        "meta_mean_motion_dot": -7.264e-05,
        "meta_mean_motion_ddot": 0,
        "tle_line1": "1 66636U 25271V   25354.58336806 -.00007264  00000+0 -17176-3 0  9997",
        "tle_line2": "2 66636  53.1602 149.9621 0000651  81.1516 101.1201 15.39627174  5503"
      },
      "geometry": {
        "type": "Point",
        "coordinates": [
          -0.19028540275477146,
          -34.33381929231225
        ]
      }
    }
  ]
}